[{"OBJECT_NAME":"STARLINK-30777","OBJECT_ID":"2023-171D","EPOCH":"2026-03-09T22:00:01.999584","MEAN_MOTION":15.23802724,"ECCENTRICITY":0.00016288,"INCLINATION":43.0003,"RA_OF_ASC_NODE":284.1432,"ARG_OF_PERICENTER":284.3202,"MEAN_ANOMALY":197.2089,"EPHEMERIS_TYPE":0,"CLASSIFICATION_TYPE":"U","NORAD_CAT_ID":58233,"ELEMENT_SET_NO":999,"REV_AT_EPOCH":578,"BSTAR":0.045327207,"MEAN_MOTION_DOT":0.01214255,"MEAN_MOTION_DDOT":0},{"OBJECT_NAME":"TEVEL2-9","OBJECT_ID":"2025-052AD","EPOCH":"2026-03-09T16:51:18.321696","MEAN_MOTION":15.28633834,"ECCENTRICITY":0.000799,"INCLINATION":97.4057,"RA_OF_ASC_NODE":324.3929,"ARG_OF_PERICENTER":124.2475,"MEAN_ANOMALY":235.9522,"EPHEMERIS_TYPE":0,"CLASSIFICATION_TYPE":"U","NORAD_CAT_ID":63237,"ELEMENT_SET_NO":999,"REV_AT_EPOCH":5481,"BSTAR":0.00067240159,"MEAN_MOTION_DOT":0.00018694,"MEAN_MOTION_DDOT":0}]
